[{"OBJECT_NAME":"TIANMU-1 09","OBJECT_ID":"2023-101C","EPOCH":"2026-03-09T22:17:34.703232","MEAN_MOTION":15.29080822,"ECCENTRICITY":0.00049013,"INCLINATION":97.267,"RA_OF_ASC_NODE":121.1263,"ARG_OF_PERICENTER":139.4293,"MEAN_ANOMALY":220.7314,"EPHEMERIS_TYPE":0,"CLASSIFICATION_TYPE":"U","NORAD_CAT_ID":57401,"ELEMENT_SET_NO":999,"REV_AT_EPOCH":14647,"BSTAR":0.00030540035,"MEAN_MOTION_DOT":8.553e-5,"MEAN_MOTION_DDOT":0},{"OBJECT_NAME":"STARLINK-36374","OBJECT_ID":"2026-005P","EPOCH":"2026-03-09T11:34:48.874368","MEAN_MOTION":15.27580778,"ECCENTRICITY":6.689e-5,"INCLINATION":42.9945,"RA_OF_ASC_NODE":239.2498,"ARG_OF_PERICENTER":289.971,"MEAN_ANOMALY":70.1069,"EPHEMERIS_TYPE":0,"CLASSIFICATION_TYPE":"U","NORAD_CAT_ID":67417,"ELEMENT_SET_NO":999,"REV_AT_EPOCH":866,"BSTAR":0.0008636409,"MEAN_MOTION_DOT":0.0002358,"MEAN_MOTION_DDOT":0}]
